STARLINK-1067           
1 44771U 19074BL  26040.25002315  .00280923  00000+0  44662-2 0  9991
2 44771  53.0554 341.5304 0001682  80.7172 139.8659 15.51806302  5949
STARLINK-1068           
1 44772U 19074BM  26040.24539541  .00121438  00000+0  16206-2 0  9995
2 44772  53.0532 318.4805 0005754 110.1123 250.0508 15.57204062344400
STARLINK-1112           
1 44925U 20001M   26040.25002315  .00235100  00000+0  83864-3 0  9999
2 44925  53.0400  27.5089 0003056  58.2856 106.3879 15.87723414  6032
STARLINK-1114           
1 44927U 20001P   26040.26604924  .00087324  00000+0  17777-2 0  9998
2 44927  53.0508 105.2815 0006852  12.7812 347.3367 15.45526747335698
STARLINK-1123           
1 44930U 20001S   26039.53074058  .00003303  00000+0  24065-3 0  9993
2 44930  53.0537 117.5240 0001595  74.3857 285.7308 15.06386199335450
STARLINK-1144           
1 44933U 20001V   26040.07359795  .01204031  99705-3  97560-3 0  9997
2 44933  53.0296 356.9783 0004076 104.2888 255.8600 16.13807406338487
STARLINK-1094           
1 44941U 20001AD  26040.14091789  .00000807  00000+0  39393-4 0  9991
2 44941  53.1606  92.1688 0001431  93.4620 266.6545 15.30190816335865
STARLINK-1122           
1 44949U 20001AM  26040.29664870  .00003487  00000+0  13307-3 0  9995
2 44949  53.1565  91.4787 0001362 107.2790 252.8359 15.29363426335883
STARLINK-1080           
1 44961U 20001AZ  26040.27949589  .00022191  00000+0  49882-3 0  9990
2 44961  53.0532  63.4522 0007741  16.8409 343.2852 15.43259780336286
STARLINK-1090           
1 44968U 20001BG  26040.29741317  .00000814  00000+0  73522-4 0  9995
2 44968  53.0555  74.0797 0001526  83.1909 276.9254 15.06399808336134
STARLINK-1132           
1 45044U 20006A   26040.25002315  .00090410  00000+0  22385-2 0  9990
2 45044  53.1587  28.4008 0004862  84.6734 195.5594 15.39680523  5872
STARLINK-1131           
1 45047U 20006D   26040.25032637  .00010889  00000+0  38888-3 0  9991
2 45047  53.1564  53.0377 0001171  90.3200 269.7934 15.29377433332197
STARLINK-1134           
1 45048U 20006E   26040.24040084  .00126989  00000+0  30636-2 0  9997
2 45048  53.0370  13.2637 0008163  82.8655 277.3277 15.40262111332753
STARLINK-1156           
1 45054U 20006L   26040.25002315 -.00001480  00000+0 -38939-4 0  9996
2 45054  53.1546  53.0257 0001554  78.1965 152.4474 15.29358614  5777
STARLINK-1159           
1 45057U 20006P   26040.25002315  .00237167  00000+0  16927-2 0  9991
2 45057  53.0483  16.9819 0005587  39.4046 322.5232 15.72540418  6003
STARLINK-1166           
1 45060U 20006S   26040.28175165  .00118617  00000+0  27146-2 0  9995
2 45060  53.0551  47.6721 0005050  45.8198 314.3221 15.41911935332270
