[{"OBJECT_NAME":"STARLINK-1067","OBJECT_ID":"2019-074BL","EPOCH":"2026-02-09T06:00:02.000160","MEAN_MOTION":15.51806302,"ECCENTRICITY":0.0001682,"INCLINATION":53.0554,"RA_OF_ASC_NODE":341.5304,"ARG_OF_PERICENTER":80.7172,"MEAN_ANOMALY":139.8659,"EPHEMERIS_TYPE":0,"CLASSIFICATION_TYPE":"U","NORAD_CAT_ID":44771,"ELEMENT_SET_NO":999,"REV_AT_EPOCH":594,"BSTAR":0.0044662194,"MEAN_MOTION_DOT":0.00280923,"MEAN_MOTION_DDOT":0},{"OBJECT_NAME":"STARLINK-1068","OBJECT_ID":"2019-074BM","EPOCH":"2026-02-09T05:53:22.163424","MEAN_MOTION":15.57204062,"ECCENTRICITY":0.00057547,"INCLINATION":53.0532,"RA_OF_ASC_NODE":318.4805,"ARG_OF_PERICENTER":110.1123,"MEAN_ANOMALY":250.0508,"EPHEMERIS_TYPE":0,"CLASSIFICATION_TYPE":"U","NORAD_CAT_ID":44772,"ELEMENT_SET_NO":999,"REV_AT_EPOCH":34440,"BSTAR":0.0016206436,"MEAN_MOTION_DOT":0.00121438,"MEAN_MOTION_DDOT":0},{"OBJECT_NAME":"STARLINK-1112","OBJECT_ID":"2020-001M","EPOCH":"2026-02-09T06:00:02.000160","MEAN_MOTION":15.87723414,"ECCENTRICITY":0.00030562,"INCLINATION":53.04,"RA_OF_ASC_NODE":27.5089,"ARG_OF_PERICENTER":58.2856,"MEAN_ANOMALY":106.3879,"EPHEMERIS_TYPE":0,"CLASSIFICATION_TYPE":"U","NORAD_CAT_ID":44925,"ELEMENT_SET_NO":999,"REV_AT_EPOCH":603,"BSTAR":0.00083863726,"MEAN_MOTION_DOT":0.002351,"MEAN_MOTION_DDOT":0},{"OBJECT_NAME":"STARLINK-1114","OBJECT_ID":"2020-001P","EPOCH":"2026-02-09T06:23:06.654336","MEAN_MOTION":15.45526747,"ECCENTRICITY":0.00068521,"INCLINATION":53.0508,"RA_OF_ASC_NODE":105.2815,"ARG_OF_PERICENTER":12.7812,"MEAN_ANOMALY":347.3367,"EPHEMERIS_TYPE":0,"CLASSIFICATION_TYPE":"U","NORAD_CAT_ID":44927,"ELEMENT_SET_NO":999,"REV_AT_EPOCH":33569,"BSTAR":0.0017777136,"MEAN_MOTION_DOT":0.00087324,"MEAN_MOTION_DDOT":0},{"OBJECT_NAME":"STARLINK-1123","OBJECT_ID":"2020-001S","EPOCH":"2026-02-08T12:44:15.986112","MEAN_MOTION":15.06386199,"ECCENTRICITY":0.0001595,"INCLINATION":53.0537,"RA_OF_ASC_NODE":117.524,"ARG_OF_PERICENTER":74.3857,"MEAN_ANOMALY":285.7308,"EPHEMERIS_TYPE":0,"CLASSIFICATION_TYPE":"U","NORAD_CAT_ID":44930,"ELEMENT_SET_NO":999,"REV_AT_EPOCH":33545,"BSTAR":0.00024065,"MEAN_MOTION_DOT":3.303e-5,"MEAN_MOTION_DDOT":0},{"OBJECT_NAME":"STARLINK-1144","OBJECT_ID":"2020-001V","EPOCH":"2026-02-09T01:45:58.862880","MEAN_MOTION":16.13807406,"ECCENTRICITY":0.00040761,"INCLINATION":53.0296,"RA_OF_ASC_NODE":356.9783,"ARG_OF_PERICENTER":104.2888,"MEAN_ANOMALY":255.86,"EPHEMERIS_TYPE":0,"CLASSIFICATION_TYPE":"U","NORAD_CAT_ID":44933,"ELEMENT_SET_NO":999,"REV_AT_EPOCH":33848,"BSTAR":0.00097560345,"MEAN_MOTION_DOT":0.01204031,"MEAN_MOTION_DDOT":0.00099704564},{"OBJECT_NAME":"STARLINK-1094","OBJECT_ID":"2020-001AD","EPOCH":"2026-02-09T03:22:55.305696","MEAN_MOTION":15.30190816,"ECCENTRICITY":0.00014315,"INCLINATION":53.1606,"RA_OF_ASC_NODE":92.1688,"ARG_OF_PERICENTER":93.462,"MEAN_ANOMALY":266.6545,"EPHEMERIS_TYPE":0,"CLASSIFICATION_TYPE":"U","NORAD_CAT_ID":44941,"ELEMENT_SET_NO":999,"REV_AT_EPOCH":33586,"BSTAR":3.9392521e-5,"MEAN_MOTION_DOT":8.07e-6,"MEAN_MOTION_DDOT":0},{"OBJECT_NAME":"STARLINK-1122","OBJECT_ID":"2020-001AM","EPOCH":"2026-02-09T07:07:10.447680","MEAN_MOTION":15.29363426,"ECCENTRICITY":0.00013629,"INCLINATION":53.1565,"RA_OF_ASC_NODE":91.4787,"ARG_OF_PERICENTER":107.279,"MEAN_ANOMALY":252.8359,"EPHEMERIS_TYPE":0,"CLASSIFICATION_TYPE":"U","NORAD_CAT_ID":44949,"ELEMENT_SET_NO":999,"REV_AT_EPOCH":33588,"BSTAR":0.00013306933,"MEAN_MOTION_DOT":3.487e-5,"MEAN_MOTION_DDOT":0},{"OBJECT_NAME":"STARLINK-1080","OBJECT_ID":"2020-001AZ","EPOCH":"2026-02-09T06:42:28.444896","MEAN_MOTION":15.4325978,"ECCENTRICITY":0.00077412,"INCLINATION":53.0532,"RA_OF_ASC_NODE":63.4522,"ARG_OF_PERICENTER":16.8409,"MEAN_ANOMALY":343.2852,"EPHEMERIS_TYPE":0,"CLASSIFICATION_TYPE":"U","NORAD_CAT_ID":44961,"ELEMENT_SET_NO":999,"REV_AT_EPOCH":33628,"BSTAR":0.00049881921,"MEAN_MOTION_DOT":0.00022191,"MEAN_MOTION_DDOT":0},{"OBJECT_NAME":"STARLINK-1090","OBJECT_ID":"2020-001BG","EPOCH":"2026-02-09T07:08:16.497888","MEAN_MOTION":15.06399808,"ECCENTRICITY":0.0001526,"INCLINATION":53.0555,"RA_OF_ASC_NODE":74.0797,"ARG_OF_PERICENTER":83.1909,"MEAN_ANOMALY":276.9254,"EPHEMERIS_TYPE":0,"CLASSIFICATION_TYPE":"U","NORAD_CAT_ID":44968,"ELEMENT_SET_NO":999,"REV_AT_EPOCH":33613,"BSTAR":7.3521924e-5,"MEAN_MOTION_DOT":8.14e-6,"MEAN_MOTION_DDOT":0},{"OBJECT_NAME":"STARLINK-1132","OBJECT_ID":"2020-006A","EPOCH":"2026-02-09T06:00:02.000160","MEAN_MOTION":15.39680523,"ECCENTRICITY":0.00048621,"INCLINATION":53.1587,"RA_OF_ASC_NODE":28.4008,"ARG_OF_PERICENTER":84.6734,"MEAN_ANOMALY":195.5594,"EPHEMERIS_TYPE":0,"CLASSIFICATION_TYPE":"U","NORAD_CAT_ID":45044,"ELEMENT_SET_NO":999,"REV_AT_EPOCH":587,"BSTAR":0.0022384638,"MEAN_MOTION_DOT":0.0009041,"MEAN_MOTION_DDOT":0},{"OBJECT_NAME":"STARLINK-1131","OBJECT_ID":"2020-006D","EPOCH":"2026-02-09T06:00:28.198368","MEAN_MOTION":15.29377433,"ECCENTRICITY":0.00011714,"INCLINATION":53.1564,"RA_OF_ASC_NODE":53.0377,"ARG_OF_PERICENTER":90.32,"MEAN_ANOMALY":269.7934,"EPHEMERIS_TYPE":0,"CLASSIFICATION_TYPE":"U","NORAD_CAT_ID":45047,"ELEMENT_SET_NO":999,"REV_AT_EPOCH":33219,"BSTAR":0.0003888803,"MEAN_MOTION_DOT":0.00010889,"MEAN_MOTION_DDOT":0},{"OBJECT_NAME":"STARLINK-1134","OBJECT_ID":"2020-006E","EPOCH":"2026-02-09T05:46:10.632576","MEAN_MOTION":15.40262111,"ECCENTRICITY":0.00081635,"INCLINATION":53.037,"RA_OF_ASC_NODE":13.2637,"ARG_OF_PERICENTER":82.8655,"MEAN_ANOMALY":277.3277,"EPHEMERIS_TYPE":0,"CLASSIFICATION_TYPE":"U","NORAD_CAT_ID":45048,"ELEMENT_SET_NO":999,"REV_AT_EPOCH":33275,"BSTAR":0.0030636448,"MEAN_MOTION_DOT":0.00126989,"MEAN_MOTION_DDOT":0},{"OBJECT_NAME":"STARLINK-1156","OBJECT_ID":"2020-006L","EPOCH":"2026-02-09T06:00:02.000160","MEAN_MOTION":15.29358614,"ECCENTRICITY":0.0001554,"INCLINATION":53.1546,"RA_OF_ASC_NODE":53.0257,"ARG_OF_PERICENTER":78.1965,"MEAN_ANOMALY":152.4474,"EPHEMERIS_TYPE":0,"CLASSIFICATION_TYPE":"U","NORAD_CAT_ID":45054,"ELEMENT_SET_NO":999,"REV_AT_EPOCH":577,"BSTAR":-3.8938658e-5,"MEAN_MOTION_DOT":-1.48e-5,"MEAN_MOTION_DDOT":0},{"OBJECT_NAME":"STARLINK-1159","OBJECT_ID":"2020-006P","EPOCH":"2026-02-09T06:00:02.000160","MEAN_MOTION":15.72540418,"ECCENTRICITY":0.00055875,"INCLINATION":53.0483,"RA_OF_ASC_NODE":16.9819,"ARG_OF_PERICENTER":39.4046,"MEAN_ANOMALY":322.5232,"EPHEMERIS_TYPE":0,"CLASSIFICATION_TYPE":"U","NORAD_CAT_ID":45057,"ELEMENT_SET_NO":999,"REV_AT_EPOCH":600,"BSTAR":0.0016926579,"MEAN_MOTION_DOT":0.00237167,"MEAN_MOTION_DDOT":0},{"OBJECT_NAME":"STARLINK-1166","OBJECT_ID":"2020-006S","EPOCH":"2026-02-09T06:45:43.342560","MEAN_MOTION":15.41911935,"ECCENTRICITY":0.00050505,"INCLINATION":53.0551,"RA_OF_ASC_NODE":47.6721,"ARG_OF_PERICENTER":45.8198,"MEAN_ANOMALY":314.3221,"EPHEMERIS_TYPE":0,"CLASSIFICATION_TYPE":"U","NORAD_CAT_ID":45060,"ELEMENT_SET_NO":999,"REV_AT_EPOCH":33227,"BSTAR":0.0027146431,"MEAN_MOTION_DOT":0.00118617,"MEAN_MOTION_DDOT":0}]
